STARLINK-3544           
1 51803U 22017AM  25078.49587513 -.00004745  00000+0 -28046-3 0  9997
2 51803  53.2145 143.6476 0001365  89.0141 271.1007 15.08813796170293
STARLINK-3601           
1 51804U 22017AN  25078.44250223 -.00000898  00000+0 -38322-4 0  9992
2 51804  53.2173 123.8834 0001600  72.1318 287.9849 15.08847340170521
STARLINK-3605           
1 51805U 22017AP  25078.44619468  .00000978  00000+0  79551-4 0  9999
2 51805  53.2166 123.9467 0001451  81.6776 278.4380 15.08842330170613
STARLINK-3606           
1 51807U 22017AR  25078.59246000  .00000051  00000+0  21272-4 0  9994
2 51807  53.2168 133.2135 0001509  99.3708 260.7455 15.08846702170500
STARLINK-3609           
1 51808U 22017AS  25078.37902678 -.00000353  00000+0 -40768-5 0  9990
2 51808  53.2162 134.1693 0001561 113.4698 246.6458 15.08835021170427
STARLINK-3607           
1 51809U 22017AT  25078.38637664 -.00000392  00000+0 -65621-5 0  9990
2 51809  53.2177 134.1074 0001473 117.7134 242.4008 15.08844152170421
STARLINK-3613           
1 51810U 22017AU  25078.49037918 -.00000959  00000+0 -42155-4 0  9995
2 51810  53.2171 123.8916 0001371  95.9370 264.1778 15.08832040170454
STARLINK-3569           
1 51811U 22017AV  25078.38269165  .00003373  00000+0  22987-3 0  9996
2 51811  53.2167 134.1511 0001834 115.0017 245.1166 15.08852678170327
STARLINK-3610           
1 51812U 22017AW  25078.52345355  .00101926  00000+0  63079-2 0  9998
2 51812  53.2153 123.5235 0001501  83.9122 276.2041 15.08972215170461
STARLINK-3552           
1 51813U 22017AX  25078.50506888  .00000795  00000+0  68047-4 0  9991
2 51813  53.2181 123.6334 0001684  99.7874 260.3308 15.08842041170468
STARLINK-3599           
1 51814U 22017AY  25078.31738925  .00003301  00000+0  22538-3 0  9990
2 51814  53.2167 124.4450 0001264  84.1833 275.9303 15.08837406170431
STARLINK-3604           
1 51815U 22017AZ  25078.38730315 -.00000742  00000+0 -28498-4 0  9993
2 51815  53.2166 124.1353 0001716  86.2839 273.8349 15.08841023170449
STARLINK-3603           
1 51816U 22017BA  25078.40301176  .00000203  00000+0  30873-4 0  9996
2 51816  53.2152 124.3035 0001281  82.5302 277.5835 15.08840586170618
STARLINK-3542           
1 51852U 22022A   25078.54092795 -.00006238  00000+0 -37411-3 0  9991
2 51852  53.2171 173.4476 0001659 114.3217 245.7949 15.08843092169392
STARLINK-3539           
1 51853U 22022B   25078.57402406  .00002252  00000+0  15957-3 0  9990
2 51853  53.2179 172.9167 0001672  66.9938 293.1230 15.08826688169357
STARLINK-3541           
1 51854U 22022C   25078.53726681 -.00000565  00000+0 -17394-4 0  9996
2 51854  53.2171 173.4616 0001477  94.4714 265.6446 15.08839853169403
STARLINK-3545           
1 51855U 22022D   25078.52253375  .00000021  00000+0  19433-4 0  9992
2 51855  53.2164 173.4489 0001406  94.1866 265.9287 15.08835561169353
STARLINK-3568           
1 51856U 22022E   25078.53453954 -.00001326  00000+0 -65218-4 0  9992
2 51856  53.2167 173.4759 0001353 110.0378 250.0760 15.08841521169437
STARLINK-3571           
1 51857U 22022F   25078.52349970 -.00000175  00000+0  70988-5 0  9995
2 51857  53.2155 173.5306 0001112 114.5217 245.5891 15.08841283169404
STARLINK-3563           
1 51858U 22022G   25078.52622018 -.00001249  00000+0 -60366-4 0  9995
2 51858  53.2178 173.5083 0001784  65.5967 294.5212 15.08846069169402
STARLINK-3560           
1 51859U 22022H   25078.60906343  .00003180  00000+0  21781-3 0  9992
2 51859  53.2148 163.1484 0001338  99.4333 260.6810 15.08837969169551
STARLINK-3559           
1 51860U 22022J   25078.54923374  .00023945  00000+0  15165-2 0  9999
2 51860  53.2152 163.4062 0001544  76.3285 283.7879 15.08863564169508
STARLINK-3562           
1 51861U 22022K   25078.46825134 -.00000627  00000+0 -21326-4 0  9998
2 51861  53.2171 163.7697 0001261  93.8248 266.2889 15.08849322169408
STARLINK-3508           
1 51862U 22022L   25078.61178568 -.00001391  00000+0 -69329-4 0  9992
2 51862  53.2172 163.1248 0001361  99.7849 260.3297 15.08835343169562
STARLINK-3555           
1 51863U 22022M   25078.52714432 -.00005340  00000+0 -31780-3 0  9996
2 51863  53.2169 163.5061 0001689 107.6772 252.4405 15.08821359169490
STARLINK-3548           
1 51864U 22022N   25078.59704994 -.00002444  00000+0 -13545-3 0  9997
2 51864  53.2177 163.1138 0001738 109.4395 250.6785 15.08853027169552
STARLINK-3503           
1 51865U 22022P   25078.51979175 -.00002791  00000+0 -15741-3 0  9990
2 51865  53.2183 163.5437 0001429  98.4519 261.6635 15.08818602169497
STARLINK-3553           
1 51866U 22022Q   25078.45080915  .00002746  00000+0  19062-3 0  9997
2 51866  53.2159 163.7023 0001525 106.7624 253.3536 15.08827042169486
STARLINK-3590           
1 51867U 22022R   25078.44986429  .00000588  00000+0  55030-4 0  9990
2 51867  53.2168 163.8536 0001454 100.3516 259.7640 15.08839503169489
STARLINK-3578           
1 51868U 22022S   25078.52346089  .00009920  00000+0  64022-3 0  9991
2 51868  53.2164 163.5249 0001464  86.5768 273.5392 15.08856538169495
STARLINK-3588           
1 51869U 22022T   25078.50505953  .00011823  00000+0  75948-3 0  9991
2 51869  53.2161 163.6075 0001325 102.9867 257.1273 15.08848245169492
STARLINK-3591           
1 51870U 22022U   25078.51243278  .00003060  00000+0  21027-3 0  9996
2 51870  53.2169 163.5736 0001588  84.8644 275.2530 15.08836152169544
STARLINK-3567           
1 51871U 22022V   25078.50138143 -.00000530  00000+0 -15174-4 0  9998
2 51871  53.2175 163.6253 0001747  70.7589 289.3592 15.08839850169605
STARLINK-3554           
1 51872U 22022W   25078.50874955 -.00000538  00000+0 -15745-4 0  9999
2 51872  53.2171 163.5894 0001355  93.3093 266.8054 15.08835473169495
STARLINK-3582           
1 51873U 22022X   25078.49130274 -.00000449  00000+0 -10140-4 0  9992
2 51873  53.2176 163.6726 0001484 103.8757 256.2400 15.08843976169498
STARLINK-3574           
1 51874U 22022Y   25078.49770371 -.00003133  00000+0 -17881-3 0  9992
2 51874  53.2193 163.6397 0001507 113.7108 246.4042 15.08848014169488
STARLINK-3585           
1 51875U 22022Z   25078.60809107 -.00003059  00000+0 -17414-3 0  9995
2 51875  53.2184 163.0610 0001309  89.8653 270.2490 15.08855419169512
STARLINK-3583           
1 51876U 22022AA  25078.49401815 -.00001833  00000+0 -97096-4 0  9990
2 51876  53.2184 163.6517 0001953 124.3242 235.7935 15.08839906169499
STARLINK-3556           
1 51877U 22022AB  25078.60902259 -.00001267  00000+0 -61532-4 0  9999
2 51877  53.2169 153.1349 0001569  97.5775 262.5395 15.08841798169642
STARLINK-3575           
1 51878U 22022AC  25078.55291118 -.00000961  00000+0 -42276-4 0  9993
2 51878  53.2181 163.3849 0001676  60.7839 299.3320 15.08841449169501
STARLINK-3572           
1 51879U 22022AD  25078.46918839  .00002501  00000+0  17510-3 0  9992
2 51879  53.2156 153.7630 0001252 114.2410 245.8713 15.08849291169623
STARLINK-3566           
1 51880U 22022AE  25078.55655731  .00017882  00000+0  11392-2 0  9992
2 51880  53.2154 163.0922 0001288  89.9311 270.1829 15.08826851169501
STARLINK-3504           
1 51881U 22022AF  25078.52806114  .00000005  00000+0  18429-4 0  9992
2 51881  53.2162 153.5017 0001620  72.5623 287.5546 15.08843567169684
STARLINK-3570           
1 51882U 22022AG  25078.60630481 -.00000651  00000+0 -22812-4 0  9994
2 51882  53.2177 153.1584 0001577  86.1512 273.9660 15.08840790169697
STARLINK-3576           
1 51883U 22022AH  25078.60537291  .00004793  00000+0  31898-3 0  9992
2 51883  53.2164 153.3344 0001521  79.7070 280.4094 15.08847793169634
STARLINK-3577           
1 51884U 22022AJ  25078.46550272 -.00000744  00000+0 -28651-4 0  9999
2 51884  53.2166 153.7795 0001591 129.4781 230.6352 15.08847918169701
STARLINK-3584           
1 51885U 22022AK  25078.51702336 -.00001115  00000+0 -51974-4 0  9993
2 51885  53.2163 153.5532 0001426  98.8960 261.2194 15.08844431169623
STARLINK-3565           
1 51886U 22022AL  25078.52438470  .00000231  00000+0  32577-4 0  9994
2 51886  53.2153 153.5200 0001362  89.6230 270.4918 15.08842772169635
STARLINK-3551           
1 51887U 22022AM  25078.51334650 -.00000069  00000+0  13739-4 0  9998
2 51887  53.2163 153.5724 0001398  88.6758 271.4395 15.08838404169627
STARLINK-3536           
1 51888U 22022AN  25078.52070113 -.00000462  00000+0 -10952-4 0  9993
2 51888  53.2161 153.5365 0001455  76.3562 283.7592 15.08841916169636
STARLINK-3547           
1 51889U 22022AP  25078.50229806  .00004091  00000+0  27503-3 0  9996
2 51889  53.2156 153.6177 0001732 105.0127 255.1056 15.08836621169622
STARLINK-3519           
1 51890U 22022AQ  25078.58335648  .00279102  00000+0  34271-2 0  9994
2 51890  53.1824 112.0512 0008622  14.6746  93.1234 15.58821221  5862
STARLINK-3549           
1 51891U 22022AR  25078.49861943 -.00000555  00000+0 -16779-4 0  9998
2 51891  53.2182 153.6369 0001576  97.6621 262.4550 15.08845587169674
STARLINK-3587           
1 51892U 22022AS  25078.50598984 -.00000899  00000+0 -38420-4 0  9991
2 51892  53.2167 153.5997 0001421 100.7583 259.3569 15.08839160169626
STARLINK-3579           
1 51893U 22022AT  25078.49123896  .00002733  00000+0  18962-3 0  9991
2 51893  53.2160 153.6681 0001463  90.3796 269.7364 15.08867830169686
STARLINK-3595           
1 51894U 22022AU  25078.49494087 -.00000678  00000+0 -24527-4 0  9998
2 51894  53.2177 153.6523 0001644  97.3847 262.7332 15.08841073169684
STARLINK-3594           
1 51895U 22022AV  25078.62007647 -.00001809  00000+0 -95629-4 0  9994
2 51895  53.2161 153.0856 0001353 132.8507 227.2599 15.08826522169645
STARLINK-3593           
1 51896U 22022AW  25078.44345110 -.00000399  00000+0 -70113-5 0  9990
2 51896  53.2169 154.1050 0001371 103.9331 256.1814 15.08836949169663
STARLINK-3598           
1 51897U 22022AX  25078.48390988 -.00001738  00000+0 -91106-4 0  9990
2 51897  53.2179 153.6992 0001590 100.9800 259.1371 15.08839012169626
